H1 CPF 01  gfz 2021 07 29 12  7102 tandemx   
H2 1003001  6202 36605    2021 07 29 12 59 42 2021 08 03 00 00 42   120 1 1  0 0 0
H9
10 0 59425  59742.000000  0   -5225238.001  -2567251.729   3673432.313
10 0 59425  59862.000000  0   -5695746.823  -2582004.797   2880724.222
10 0 59425  59982.000000  0   -6066459.246  -2544246.815   2037283.437
10 0 59425  60102.000000  0   -6329993.532  -2456448.420   1157962.916
10 0 59425  60222.000000  0   -6480913.728  -2322075.336    258251.229
10 0 59425  60342.000000  0   -6515844.049  -2145491.780   -646007.701
10 0 59425  60462.000000  0   -6433543.013  -1931845.166  -1538903.398
10 0 59425  60582.000000  0   -6234932.496  -1686935.191  -2404747.757
10 0 59425  60702.000000  0   -5923083.505  -1417071.009  -3228357.088
10 0 59425  60822.000000  0   -5503159.593  -1128920.156  -3995321.970
10 0 59425  60942.000000  0   -4982320.082   -829353.100  -4692259.631
10 0 59425  61062.000000  0   -4369585.921   -525286.867  -5307044.273
10 0 59425  61182.000000  0   -3675671.318   -223532.180  -5829011.113
10 0 59425  61302.000000  0   -2912786.513     69352.896  -6249130.921
10 0 59425  61422.000000  0   -2094417.227    347199.451  -6560153.970
10 0 59425  61542.000000  0   -1235084.261    604351.380  -6756723.896
10 0 59425  61662.000000  0    -350087.657    835775.383  -6835459.869
10 0 59425  61782.000000  0     544759.925   1037156.101  -6795007.127
10 0 59425  61902.000000  0    1433407.529   1204973.318  -6636059.216
10 0 59425  62022.000000  0    2299848.203   1336562.607  -6361349.234
10 0 59425  62142.000000  0    3128402.032   1430157.512  -5975607.648
10 0 59425  62262.000000  0    3903996.000   1484912.005  -5485488.013
10 0 59425  62382.000000  0    4612436.435   1500903.562  -4899463.508
10 0 59425  62502.000000  0    5240672.549   1479117.032  -4227692.425
10 0 59425  62622.000000  0    5777043.519   1421408.766  -3481851.831
10 0 59425  62742.000000  0    6211503.926   1330451.428  -2674943.108
10 0 59425  62862.000000  0    6535823.973   1209660.625  -1821071.145
10 0 59425  62982.000000  0    6743758.126   1063104.786   -935198.492
10 0 59425  63102.000000  0    6831176.247    895399.393    -32880.018
10 0 59425  63222.000000  0    6796152.888    711589.125    870016.161
10 0 59425  63342.000000  0    6639014.407    517020.633   1757594.538
10 0 59425  63462.000000  0    6362341.208    317207.759   2614221.914
10 0 59425  63582.000000  0    5970922.233    117694.221   3424811.484
10 0 59425  63702.000000  0    5471666.015    -76083.692   4175095.528
10 0 59425  63822.000000  0    4873469.760   -258928.851   4851879.663
10 0 59425  63942.000000  0    4187051.826   -426008.802   5443277.296
10 0 59425  64062.000000  0    3424747.978   -572971.030   5938916.168
10 0 59425  64182.000000  0    2600281.236   -696044.184   6330115.490
10 0 59425  64302.000000  0    1728508.586   -792125.095   6610032.201
10 0 59425  64422.000000  0     825149.168   -858849.366   6773775.937
10 0 59425  64542.000000  0     -93502.518   -894644.291   6818488.995
10 0 59425  64662.000000  0   -1010870.653   -898763.095   6743391.777
10 0 59425  64782.000000  0   -1910395.938   -871300.242   6549794.871
10 0 59425  64902.000000  0   -2775832.849   -813186.858   6241077.204
10 0 59425  65022.000000  0   -3591542.284   -726166.813   5822631.965
10 0 59425  65142.000000  0   -4342777.220   -612754.057   5301779.256
10 0 59425  65262.000000  0   -5015955.397   -476172.155   4687644.339
10 0 59425  65382.000000  0   -5598912.563   -320276.442   3991002.324
10 0 59425  65502.000000  0   -6081130.961   -149460.553   3224092.007
10 0 59425  65622.000000  0   -6453938.391     31450.890   2400402.850
10 0 59425  65742.000000  0   -6710674.922    217321.584   1534436.506
10 0 59425  65862.000000  0   -6846820.650    402830.983    641446.383
10 0 59425  65982.000000  0   -6860081.048    582606.999   -262838.743
10 0 59425  66102.000000  0   -6750426.990    751361.070  -1162501.100
10 0 59425  66222.000000  0   -6520088.027    904021.524  -2041722.779
10 0 59425  66342.000000  0   -6173502.354   1035861.825  -2885070.106
10 0 59425  66462.000000  0   -5717223.353   1142621.572  -3677772.001
10 0 59425  66582.000000  0   -5159781.882   1220615.593  -4405981.054
10 0 59425  66702.000000  0   -4511513.753   1266829.314  -5057012.850
10 0 59425  66822.000000  0   -3784355.821   1278998.289  -5619560.601
10 0 59425  66942.000000  0   -2991616.908   1255670.402  -6083881.957
10 0 59425  67062.000000  0   -2147728.346   1196249.060  -6441956.783
10 0 59425  67182.000000  0   -1267978.722   1101018.577  -6687614.399
10 0 59425  67302.000000  0    -368237.928    971150.251  -6816628.161
10 0 59425  67422.000000  0     535323.084    808689.376  -6826779.156
10 0 59425  67542.000000  0    1426514.703    616523.869  -6717891.933
10 0 59425  67662.000000  0    2289413.295    398333.938  -6491838.484
10 0 59425  67782.000000  0    3108639.633    158524.218  -6152509.136
10 0 59425  67902.000000  0    3869629.453    -97860.781  -5705752.370
10 0 59425  68022.000000  0    4558890.124   -365237.648  -5159283.352
10 0 59425  68142.000000  0    5164242.732   -637598.773  -4522563.382
10 0 59425  68262.000000  0    5675044.736   -908640.015  -3806646.808
10 0 59425  68382.000000  0    6082386.502  -1171898.396  -3023998.223
10 0 59425  68502.000000  0    6379258.338  -1420897.538  -2188282.078
10 0 59425  68622.000000  0    6560683.854  -1649297.368  -1314127.036
10 0 59425  68742.000000  0    6623814.765  -1851044.211   -416868.839
10 0 59425  68862.000000  0    6567984.682  -2020517.636    487722.749
10 0 59425  68982.000000  0    6394719.755  -2152670.573   1383728.594
10 0 59425  69102.000000  0    6107704.302  -2243158.217   2255369.224
10 0 59425  69222.000000  0    5712703.003  -2288453.339   3087291.862
10 0 59425  69342.000000  0    5217440.870  -2285943.459   3864849.057
10 0 59425  69462.000000  0    4631444.294  -2234008.603   4574361.082
10 0 59425  69582.000000  0    3965850.524  -2132077.231   5203358.227
10 0 59425  69702.000000  0    3233187.811  -1980660.371   5740801.101
10 0 59425  69822.000000  0    2447130.028  -1781362.058   6177271.046
10 0 59425  69942.000000  0    1622235.314  -1536866.527   6505129.415
10 0 59425  70062.000000  0     773672.058  -1250903.178   6718645.521
10 0 59425  70182.000000  0     -83062.690   -928189.003   6814091.076
10 0 59425  70302.000000  0    -932426.412   -574349.810   6789800.166
10 0 59425  70422.000000  0   -1759111.717   -195822.265   6646196.025
10 0 59425  70542.000000  0   -2548320.915    200262.828   6385784.169
10 0 59425  70662.000000  0   -3286030.442    606214.002   6013112.164
10 0 59425  70782.000000  0   -3959241.889   1013926.987   5534695.874
10 0 59425  70902.000000  0   -4556215.863   1415044.649   4958911.853
10 0 59425  71022.000000  0   -5066683.337   1801126.997   4295856.315
10 0 59425  71142.000000  0   -5482030.389   2163827.612   3557172.071
10 0 59425  71262.000000  0   -5795451.412   2495072.293   2755846.188
10 0 59425  71382.000000  0   -6002068.610   2787236.355   1905981.903
10 0 59425  71502.000000  0   -6099014.993   3033316.605   1022547.369
10 0 59425  71622.000000  0   -6085476.674   3227093.260    121104.798
10 0 59425  71742.000000  0   -5962692.773   3363277.118   -782471.821
10 0 59425  71862.000000  0   -5733914.501   3437638.207  -1672285.007
10 0 59425  71982.000000  0   -5404324.032   3447113.431  -2532702.912
10 0 59425  72102.000000  0   -4980913.058   3389889.284  -3348641.227
10 0 59425  72222.000000  0   -4472327.371   3265458.438  -4105831.282
10 0 59425  72342.000000  0   -3888681.132   3074648.965  -4791068.577
10 0 59425  72462.000000  0   -3241347.253   2819626.469  -5392438.239
10 0 59425  72582.000000  0   -2542729.526   2503869.725  -5899513.031
10 0 59425  72702.000000  0   -1806021.390   2132121.517  -6303524.857
10 0 59425  72822.000000  0   -1044954.150   1710314.138  -6597504.796
10 0 59425  72942.000000  0    -273543.215   1245473.090  -6776391.387
10 0 59425  73062.000000  0     494165.243    745600.067  -6837108.124
10 0 59425  73182.000000  0    1244343.124    219537.964  -6778611.706
10 0 59425  73302.000000  0    1963624.960   -323182.522  -6601908.557
10 0 59425  73422.000000  0    2639340.093   -872511.164  -6310038.333
10 0 59425  73542.000000  0    3259732.322  -1418059.399  -5908027.767
10 0 59425  73662.000000  0    3814162.718  -1949291.404  -5402812.788
10 0 59425  73782.000000  0    4293294.736  -2455724.473  -4803131.006
10 0 59425  73902.000000  0    4689256.407  -2927135.040  -4119381.109
10 0 59425  74022.000000  0    4995775.951  -3353764.738  -3363452.671
10 0 59425  74142.000000  0    5208289.738  -3726523.086  -2548527.870
10 0 59425  74262.000000  0    5324018.909  -4037182.618  -1688855.860
10 0 59425  74382.000000  0    5342011.075  -4278560.954   -799504.408
10 0 59425  74502.000000  0    5263146.365  -4444685.899    103907.154
10 0 59425  74622.000000  0    5090106.417  -4530939.111   1005488.566
10 0 59425  74742.000000  0    4827305.694  -4534172.605   1889367.042
10 0 59425  74862.000000  0    4480787.728  -4452795.457   2739975.709
10 0 59425  74982.000000  0    4058089.508  -4286828.495   3542335.527
10 0 59425  75102.000000  0    3568077.082  -4037926.924   4282325.444
10 0 59425  75222.000000  0    3020755.653  -3709369.135   4946935.148
10 0 59425  75342.000000  0    2427060.703  -3306011.864   5524494.099
10 0 59425  75462.000000  0    1798635.335  -2834214.755   6004874.928
10 0 59425  75582.000000  0    1147597.370  -2301734.622   6379666.328
10 0 59425  75702.000000  0     486303.198  -1717593.800   6642314.032
10 0 59425  75822.000000  0    -172888.021  -1091924.413   6788229.329
10 0 59425  75942.000000  0    -817844.753   -435790.580   6814864.323
10 0 59425  76062.000000  0   -1436885.286    239007.700   6721753.226
10 0 59425  76182.000000  0   -2018988.589    920146.314   6510520.028
99
